KUIPER-00008            
1 63724U 25088A   25215.40390585  .00004282  00000+0  37368-3 0  9999
2 63724  51.8915   2.1013 0011734  86.7693 273.4620 14.98673133 15314
KUIPER-00009            
1 63725U 25088B   25215.91668981  .00017321  00000+0  10158-2 0  9999
2 63725  51.8812 352.9972 0011444 109.9277 256.6383 15.11795054 15485
KUIPER-00010            
1 63726U 25088C   25215.75245022  .00011321  00000+0  32560-3 0  9995
2 63726  51.8655 351.2635 0009585 100.0680 260.1388 15.36237014 15111
KUIPER-00011            
1 63727U 25088D   25216.10732766  .00014868  00000+0  43069-3 0  9997
2 63727  51.8588 349.8211 0010913 110.6248 249.5909 15.35734040 15305
KUIPER-00012            
1 63728U 25088E   25215.64927420  .00012966  00000+0  37551-3 0  9995
2 63728  51.8576 351.9898 0011107 109.8948 250.3236 15.35863592 15185
KUIPER-00013            
1 63729U 25088F   25215.37589943  .00004948  00000+0  29048-3 0  9993
2 63729  51.8800 356.1299 0006371  66.4293 293.7352 15.13374658 15205
KUIPER-00014            
1 63730U 25088G   25215.65838077  .00014673  00000+0  84952-3 0  9992
2 63730  51.8803 355.8433 0009306  98.7990 261.4040 15.12399222 15040
KUIPER-00015            
1 63731U 25088H   25216.10571808 -.00040133  00000+0 -50929-2 0  9998
2 63731  51.9021   3.6207 0011105  85.1144 275.1086 14.81285158 15434
